From: horizons@ssd.jpl.nasa.gov (Horizons Ephemeris System)
Subject: [Horizons] SMALL BODY #C(500@10)_T(161P/Hartley-IRAS) (1/1)
Date: March 1, 2021 at 10:58:04 AM PST

Automated mail xmit by MAIL_REQUEST, PID= 12305 Mon Mar  1 10:58:04 2021
++++++++++++++++++++++++++++++++ (part 1 of 1)  +++++++++++++++++++++++++++++++


*******************************************************************************
Ephemeris / MAIL_REQUEST Mon Mar  1 10:58:04 2021 Pasadena, USA  / Horizons
*******************************************************************************
Target body name: 161P/Hartley-IRAS               {source: JPL#59}
Center body name: Sun (10)                        {source: DE431}
Center-site name: BODY CENTER
*******************************************************************************
Start time      : A.D. 2002-Jul-02 00:00:00.0000 TDB
Stop  time      : A.D. 2008-Jul-02 00:00:00.0000 TDB
Step-size       : 20160 minutes
*******************************************************************************
Center geodetic : 0.00000000,0.00000000,0.0000000 {E-lon(deg),Lat(deg),Alt(km)}
Center cylindric: 0.00000000,0.00000000,0.0000000 {E-lon(deg),Dxy(km),Dz(km)}
Center radii    : 696000.0 x 696000.0 x 696000.0 k{Equator, meridian, pole}    
Small perturbers: Yes                             {source: SB431-N16}
Output units    : AU-D
Output type     : GEOMETRIC cartesian states
Output format   : 3 (position, velocity, LT, range, range-rate)
Reference frame : Ecliptic of J2000.0
*******************************************************************************
Initial IAU76/J2000 heliocentric ecliptic osculating elements (au, days, deg.):
 EPOCH=  2452749.5 ! 2003-Apr-20.0000000 (TDB)    RMSW= n.a.                  
  EC= .8350738462769237   QR= 1.273433390358047   TP= 2453542.3646186753      
  OM= 1.415670065293847   W= 47.13845022529085    IN= 95.69806814972893       
 Equivalent ICRF heliocentric equatorial cartesian coordinates (au, au/d):
  X=-7.580497437106684E-01  Y= 3.395738374741322E+00  Z=-6.129438236802086E+00
 VX= 4.314008168503401E-03 VY=-2.438586753509707E-03 VZ= 4.592116125916131E-03
Comet physical (GM= km^3/s^2; RAD= km):                                        
  GM= n.a.                RAD= n.a.                                           
  M1=  11.4     M2=  15.      k1=  12.    k2=  5.      PHCOF=  .030           
*******************************************************************************
           JDTDB,            Calendar Date (TDB),                      X,                      Y,                      Z,                     VX,                     VY,                     VZ,                     LT,                     RG,                     RR,
**************************************************************************************************************************************************************************************************************************************************************************
$$SOE
2454277.500000000, A.D. 2007-Jun-26 00:00:00.0000, -6.644694492448854E+00, -6.624152821635250E-02, -9.730854810581708E-01, -5.246311950010574E-03,  3.402606835645049E-04, -4.708434151234006E-03,  3.878777577687598E-02,  6.715895189137989E+00,  5.869554025660203E-03,
2454291.500000000, A.D. 2007-Jul-10 00:00:00.0000, -6.717511465194764E+00, -6.147068496334394E-02, -1.038909336146622E+00, -5.156495347202353E-03,  3.412734190545941E-04, -4.694907856078394E-03,  3.925996323789273E-02,  6.797651913629116E+00,  5.810156567309200E-03,
2454305.500000000, A.D. 2007-Jul-24 00:00:00.0000, -6.789086843082219E+00, -5.668629039821083E-02, -1.104541143301195E+00, -5.068924763810937E-03,  3.421964173097897E-04, -4.681004812314152E-03,  3.972739083715946E-02,  6.878584493605956E+00,  5.751813475729903E-03,
2454319.500000000, A.D. 2007-Aug-07 00:00:00.0000, -6.859451372693234E+00, -5.188961777060785E-02, -1.169975878074075E+00, -4.983499639198541E-03,  3.430272137264627E-04, -4.666760363846351E-03,  4.019014237724102E-02,  6.958707439032818E+00,  5.694487272462703E-03,
2454333.500000000, A.D. 2007-Aug-21 00:00:00.0000, -6.928634371977883E+00, -4.708191674187311E-02, -1.235208989400454E+00, -4.900119874721930E-03,  3.437745511114667E-04, -4.652206292920495E-03,  4.064829833544784E-02,  7.038034684124051E+00,  5.638136531081388E-03,
2454347.500000000, A.D. 2007-Sep-04 00:00:00.0000, -6.996663897731975E+00, -4.226428413010968E-02, -1.300236339344067E+00, -4.818704480309926E-03,  3.444458943752711E-04, -4.637370427109749E-03,  4.110193646547961E-02,  7.116579691515432E+00,  5.582734569497079E-03,
2454361.500000000, A.D. 2007-Sep-18 00:00:00.0000, -7.063566883651879E+00, -3.743778883636358E-02, -1.365054170254772E+00, -4.739171954915645E-03,  3.450408381734732E-04, -4.622279244157335E-03,  4.155113228795222E-02,  7.194355537196254E+00,  5.528250843779299E-03,
2454375.500000000, A.D. 2007-Oct-02 00:00:00.0000, -7.129369125907389E+00, -3.260348555653395E-02, -1.429659080339301E+00, -4.661442486943679E-03,  3.455619132170661E-04, -4.606957022741207E-03,  4.199595873993048E-02,  7.271374849827819E+00,  5.474653196706022E-03,
2454389.500000000, A.D. 2007-Oct-16 00:00:00.0000, -7.194095338175093E+00, -2.776238293603070E-02, -1.494047992234032E+00, -4.585441367508380E-03,  3.460126902965376E-04, -4.591425891236024E-03,  4.243648623248161E-02,  7.347649820708486E+00,  5.421911473063330E-03,
2454403.500000000, A.D. 2007-Oct-30 00:00:00.0000, -7.257769216307961E+00, -2.291545197994836E-02, -1.558218126677908E+00, -4.511096759226525E-03,  3.463945665940317E-04, -4.575706472739705E-03,  4.287278278732490E-02,  7.423192227433863E+00,  5.369995677022168E-03,
2454417.500000000, A.D. 2007-Nov-13 00:00:00.0000, -7.320413422403092E+00, -1.806362093694745E-02, -1.622166984749496E+00, -4.438333645201458E-03,  3.467158272083001E-04, -4.559817846768432E-03,  4.330491374444195E-02,  7.498013383271063E+00,  5.318870236033293E-03,
2454431.500000000, A.D. 2007-Nov-27 00:00:00.0000, -7.382049672675327E+00, -1.320761730915702E-02, -1.685892309925151E+00, -4.367094824865182E-03,  3.469917741422802E-04, -4.543775728014548E-03,  4.373294204547976E-02,  7.572124186228436E+00,  5.268514298578964E-03,
2454445.500000000, A.D. 2007-Dec-11 00:00:00.0000, -7.442698946767454E+00, -8.348048231864642E-03, -1.749392059896068E+00, -4.297328018560155E-03,  3.472256123334580E-04, -4.527595300027446E-03,  4.415692922509046E-02,  7.645535290700714E+00,  5.218909835955598E-03,
2454459.500000000, A.D. 2007-Dec-25 00:00:00.0000, -7.502381479528592E+00, -3.485480410222484E-03, -1.812664399395669E+00, -4.228980430833335E-03,  3.474208133624104E-04, -4.511290771670575E-03,  4.457693520918679E-02,  7.718257072538059E+00,  5.170036361219746E-03,
2454473.500000000, A.D. 2008-Jan-08 00:00:00.0000, -7.561116793634567E+00,  1.379569641011700E-03, -1.875707682809372E+00, -4.162003287263372E-03,  3.475805655087531E-04, -4.494875062458348E-03,  4.499301834134634E-02,  7.790299633617770E+00,  5.121875412573437E-03,
2454487.500000000, A.D. 2008-Jan-22 00:00:00.0000, -7.618923753653752E+00,  6.246608820378645E-03, -1.938520438575221E+00, -4.096350649898605E-03,  3.477043966113463E-04, -4.478360242310759E-03,  4.540523554135700E-02,  7.861672829295621E+00,  5.074409603452630E-03,
2454501.500000000, A.D. 2008-Feb-05 00:00:00.0000, -7.675820551329499E+00,  1.111511746650777E-02, -2.001101362591827E+00, -4.031971050488898E-03,  3.477916679531612E-04, -4.461758073811499E-03,  4.581364209924738E-02,  7.932386232743299E+00,  5.027614766586885E-03,
2454515.500000000, A.D. 2008-Feb-19 00:00:00.0000, -7.731824682802082E+00,  1.598465880081871E-02, -2.063449300230665E+00, -3.968821618624849E-03,  3.478529712370588E-04, -4.445077851765689E-03,  4.621829141983080E-02,  8.002449090717599E+00,  4.981473245798835E-03,
2454529.500000000, A.D. 2008-Mar-04 00:00:00.0000, -7.786953139329600E+00,  2.085487248453008E-02, -2.125563219210531E+00, -3.906868265686809E-03,  3.478869006133402E-04, -4.428328357204770E-03,  4.661923595226499E-02,  8.071870484508661E+00,  4.935974530130869E-03,
2454543.500000000, A.D. 2008-Mar-18 00:00:00.0000, -7.841222391724600E+00,  2.572534769330841E-02, -2.187442212285845E+00, -3.846071560574209E-03,  3.478899562315774E-04, -4.411518419147775E-03,  4.701652701124829E-02,  8.140659298981083E+00,  4.891101835736661E-03,
2454557.500000000, A.D. 2008-Apr-01 00:00:00.0000, -7.894648359205286E+00,  3.059563858584198E-02, -2.249085490770146E+00, -3.786392675304819E-03,  3.478602755539697E-04, -4.394656137430636E-03,  4.741021450835269E-02,  8.208824176055666E+00,  4.846837772496681E-03,
2454571.500000000, A.D. 2008-Apr-15 00:00:00.0000, -7.947246429500638E+00,  3.546527029434998E-02, -2.310492375135710E+00, -3.727794321154053E-03,  3.477950430717533E-04, -4.377749078472258E-03,  4.780034697197644E-02,  8.276373518164096E+00,  4.803165363759410E-03,
2454585.500000000, A.D. 2008-Apr-29 00:00:00.0000, -7.999031449503365E+00,  4.033371031988839E-02, -2.371662292092192E+00, -3.670234717898970E-03,  3.476899926543860E-04, -4.360804934798700E-03,  4.818697141914565E-02,  8.343315466052093E+00,  4.760062513709759E-03,
2454599.500000000, A.D. 2008-May-13 00:00:00.0000, -8.050017651824197E+00,  4.520045110831776E-02, -2.432594769340310E+00, -3.613672548561455E-03,  3.475545297473808E-04, -4.343829894401730E-03,  4.857013287916258E-02,  8.409657816301648E+00,  4.717506487420232E-03,
2454613.500000000, A.D. 2008-May-27 00:00:00.0000, -8.100218813596188E+00,  5.006511607959287E-02, -2.493289407878919E+00, -3.558081335310316E-03,  3.473931072221563E-04, -4.326828894898684E-03,  4.894987517296807E-02,  8.475408156273472E+00,  4.675487666378426E-03,
2454627.500000000, A.D. 2008-Jun-10 00:00:00.0000, -8.149648316331106E+00,  5.492733290970141E-02, -2.553745883056718E+00, -3.503430277947967E-03,  3.472049607077792E-04, -4.309807443713108E-03,  4.932624118321373E-02,  8.540573910868527E+00,  4.633991712701139E-03,
